NORAD_CAT_ID,OBJECT_NAME,OBJECT_TYPE,EPOCH,MEAN_MOTION,ECCENTRICITY,INCLINATION,RA_OF_ASC_NODE,ARG_OF_PERICENTER,MEAN_ANOMALY,BSTAR,MEAN_MOTION_DOT,MEAN_MOTION_DDOT,TLE_LINE0,TLE_LINE1,TLE_LINE2,SEMIMAJOR_AXIS,PERIOD,APOGEE,PERIGEE,DECAYED
51742.0,STARLINK-3521,PAYLOAD,2022-10-10 10:50:42,15.08839339,0.0002475,53.2172,153.6894,54.8149,305.3074,6.6862e-05,7.76e-06,0.0,0 STARLINK-3521,1 51742U 22016AE  22283.45188180  .00000776  00000-0  66862-4 0  9994,2 51742  53.2172 153.6894 0002475  54.8149 305.3074 15.08839339 35421,6917.882,95.438,541.46,538.035,0.0
51742.0,STARLINK-3521,PAYLOAD,2022-10-10 17:12:15,15.08826376,0.0001976999999999,53.2173,152.5005,46.187,313.9285,5.7543e-05,6.27e-06,0.0,0 STARLINK-3521,1 51742U 22016AE  22283.71684861  .00000627  00000-0  57543-4 0  9991,2 51742  53.2173 152.5005 0001977  46.1870 313.9285 15.08826376 36590,6917.922,95.438,541.155,538.419,0.0
51742.0,STARLINK-3521,PAYLOAD,2022-10-10 21:58:24,15.08830561,0.0001975,53.2169,151.6077,47.9013,312.2147,7.2111e-05,8.59e-06,0.0,0 STARLINK-3521,1 51742U 22016AE  22283.91556599  .00000859  00000-0  72111-4 0  9994,2 51742  53.2169 151.6077 0001975  47.9013 312.2147 15.08830561 35498,6917.909000000002,95.438,541.141,538.408,0.0
51742.0,STARLINK-3521,PAYLOAD,2022-10-11 01:09:11,15.08835018,0.0001884,53.2184,151.0142,37.9496,322.1628,4.5105e-05,4.3e-06,0.0,0 STARLINK-3521,1 51742U 22016AE  22284.04804492  .00000430  00000-0  45105-4 0  9995,2 51742  53.2184 151.0142 0001884  37.9496 322.1628 15.08835018 36649,6917.896,95.438,541.064,538.457,0.0
51742.0,STARLINK-3521,PAYLOAD,2022-10-11 10:41:30,15.08828182,0.0001460999999999,53.2167,149.2272,42.0127,318.0977,-8.944899999999999e-05,-1.711e-05,0.0,0 STARLINK-3521,1 51742U 22016AE  22284.44549444 -.00001711  00000-0 -89449-4 0  9996,2 51742  53.2167 149.2272 0001461  42.0127 318.0977 15.08828182 36704,6917.917,95.438,540.7919999999998,538.771,0.0
51742.0,STARLINK-3521,PAYLOAD,2022-10-11 17:03:04,15.08822127,0.0001708,53.2194,148.0414,25.4097,334.6979,-0.00018303,-3.198e-05,0.0,0 STARLINK-3521,1 51742U 22016AE  22284.71046460 -.00003198  00000-0 -18303-3 0  9997,2 51742  53.2194 148.0414 0001708  25.4097 334.6979 15.08822127 35612,6917.935,95.439,540.982,538.618,0.0
51742.0,STARLINK-3521,PAYLOAD,2022-10-12 10:32:19,15.08816815,0.0001145,53.2195,144.7679,43.0311,317.0771,-0.00011483,-2.114e-05,0.0,0 STARLINK-3521,1 51742U 22016AE  22285.43911194 -.00002114  00000-0 -11483-3 0  9991,2 51742  53.2195 144.7679 0001145  43.0311 317.0771 15.08816815 35723,6917.951,95.439,540.6080000000002,539.024,0.0
51742.0,STARLINK-3521,PAYLOAD,2022-10-12 16:53:51,15.08823688,0.0001874,53.2177,143.5791,45.0699,315.0445,-1.306e-06,-3.09e-06,0.0,0 STARLINK-3521,1 51742U 22016AE  22285.70406882 -.00000309  00000-0 -13060-5 0  9993,2 51742  53.2177 143.5791 0001874  45.0699 315.0445 15.08823688 36896,6917.93,95.439,541.092,538.499,0.0
51742.0,STARLINK-3521,PAYLOAD,2022-10-13 07:12:19,15.08845597,0.0001829,53.2182,140.9034,42.9375,317.176,-6.7828e-05,-1.368e-05,0.0,0 STARLINK-3521,1 51742U 22016AE  22286.30022113 -.00001368  00000-0 -67828-4 0  9997,2 51742  53.2182 140.9034 0001829  42.9375 317.1760 15.08845597 36986,6917.863,95.437,540.994,538.4630000000002,0.0
51742.0,STARLINK-3521,PAYLOAD,2022-10-14 08:38:29,15.08840536,0.0001925,53.2176,136.1453,48.169,311.9467,0.00013199,1.813e-05,0.0,0 STARLINK-3521,1 51742U 22016AE  22287.36006408  .00001813  00000-0  13199-3 0  9997,2 51742  53.2176 136.1453 0001925  48.1690 311.9467 15.08840536 36014,6917.879,95.438,541.075,538.4119999999998,0.0
51742.0,STARLINK-3521,PAYLOAD,2022-10-14 16:35:25,15.08840896,0.0001949,53.2174,134.6582,48.6321,311.4838,0.00012129,1.643e-05,0.0,0 STARLINK-3521,1 51742U 22016AE  22287.69126380  .00001643  00000-0  12129-3 0  9998,2 51742  53.2174 134.6582 0001949  48.6321 311.4838 15.08840896 36061,6917.878000000002,95.437,541.091,538.394,0.0
51742.0,STARLINK-3521,PAYLOAD,2022-10-15 13:15:25,15.08850631,0.0002236,53.2167,130.7942,53.6342,306.4856,8.969200000000003e-08,-2.87e-06,0.0,0 STARLINK-3521,1 51742U 22016AE  22288.55237984 -.00000287  00000-0  89692-7 0  9994,2 51742  53.2167 130.7942 0002236  53.6342 306.4856 15.08850631 37321,6917.848000000001,95.437,541.26,538.1659999999998,0.0
51742.0,STARLINK-3521,PAYLOAD,2022-10-15 19:36:58,15.08844763,0.0002309,53.2178,129.6029,54.5239,305.5968,-9.5385e-05,-1.806e-05,0.0,0 STARLINK-3521,1 51742U 22016AE  22288.81734529 -.00001806  00000-0 -95385-4 0  9992,2 51742  53.2178 129.6029 0002309  54.5239 305.5968 15.08844763 37369,6917.866,95.437,541.328,538.133,0.0
51742.0,STARLINK-3521,PAYLOAD,2022-10-15 21:12:20,15.087819,0.0002126,53.218,129.3056,58.8143,301.3057,0.00062873,9.717e-05,0.0,0 STARLINK-3521,1 51742U 22016AE  22288.88357535  .00009717  00000-0  62873-3 0  9999,2 51742  53.2180 129.3056 0002126  58.8143 301.3057 15.08781900 37374,6918.058000000001,95.441,541.394,538.452,0.0
51742.0,STARLINK-3521,PAYLOAD,2022-10-16 13:06:13,15.08838447,0.0001962,53.2176,126.332,47.91,312.2059,-8.0968e-05,-1.577e-05,0.0,0 STARLINK-3521,1 51742U 22016AE  22289.54598605 -.00001577  00000-0 -80968-4 0  9992,2 51742  53.2176 126.3320 0001962  47.9100 312.2059 15.08838447 37472,6917.885,95.438,541.107,538.393,0.0
51742.0,STARLINK-3521,PAYLOAD,2022-10-16 19:27:45,15.08836776,0.0001991,53.2177,125.1427,48.6876,311.4287,-8.3556e-05,-1.618e-05,0.0,0 STARLINK-3521,1 51742U 22016AE  22289.81094742 -.00001618  00000-0 -83556-4 0  9997,2 51742  53.2177 125.1427 0001991  48.6876 311.4287 15.08836776 36384,6917.89,95.438,541.133,538.378,0.0
51742.0,STARLINK-3521,PAYLOAD,2022-10-17 11:21:36,15.08845538,0.0001961,53.218,122.169,48.4524,311.6636,-8.4297e-06,-4.22e-06,0.0,0 STARLINK-3521,1 51742U 22016AE  22290.47333821 -.00000422  00000-0 -84297-5 0  9991,2 51742  53.2180 122.1690 0001961  48.4524 311.6636 15.08845538 37615,6917.863,95.437,541.085,538.372,0.0
51742.0,STARLINK-3521,PAYLOAD,2022-10-17 19:18:31,15.08853525,0.0001996,53.218,120.6819,49.2313,310.8852,-2.9739e-05,-7.62e-06,0.0,0 STARLINK-3521,1 51742U 22016AE  22290.80453212 -.00000762  00000-0 -29739-4 0  9991,2 51742  53.2180 120.6819 0001996  49.2313 310.8852 15.08853525 36530,6917.839,95.437,541.085,538.323,0.0
51742.0,STARLINK-3521,PAYLOAD,2022-10-18 12:47:46,15.0883285,0.0001904,53.2179,117.4111,47.5371,312.5782,4.3721e-05,4.08e-06,0.0,0 STARLINK-3521,1 51742U 22016AE  22291.53318248  .00000408  00000-0  43721-4 0  9993,2 51742  53.2179 117.4111 0001904  47.5371 312.5782 15.08832850 37777,6917.901999999999,95.438,541.0840000000002,538.45,0.0
51742.0,STARLINK-3521,PAYLOAD,2022-10-18 17:33:56,15.08834708,0.0001924,53.2181,116.5193,47.5107,312.6048,5.5662e-05,5.98e-06,0.0,0 STARLINK-3521,1 51742U 22016AE  22291.73190149  .00000598  00000-0  55662-4 0  9990,2 51742  53.2181 116.5193 0001924  47.5107 312.6048 15.08834708 36677,6917.897,95.438,541.0930000000002,538.431,0.0
51742.0,STARLINK-3521,PAYLOAD,2022-10-19 12:38:33,15.08845666,0.0001898,53.2182,112.9508,47.5071,312.6081,-6.6737e-06,-3.94e-06,0.0,0 STARLINK-3521,1 51742U 22016AE  22292.52677570 -.00000394  00000-0 -66737-5 0  9998,2 51742  53.2182 112.9508 0001898  47.5071 312.6081 15.08845666 36793,6917.863,95.437,541.0409999999998,538.415,0.0
51742.0,STARLINK-3521,PAYLOAD,2022-10-19 17:24:43,15.08837173,0.000176,53.218,112.058,46.2291,313.8847,-7.5006e-05,-1.482e-05,0.0,0 STARLINK-3521,1 51742U 22016AE  22292.72550297 -.00001482  00000-0 -75006-4 0  9993,2 51742  53.2180 112.0580 0001760  46.2291 313.8847 15.08837173 37956,6917.889,95.438,540.972,538.536,0.0
51742.0,STARLINK-3521,PAYLOAD,2022-10-19 20:35:29,15.08837535,0.0001758,53.218,111.4632,45.7852,314.3284,-6.9232e-05,-1.39e-05,0.0,0 STARLINK-3521,1 51742U 22016AE  22292.85798263 -.00001390  00000-0 -69232-4 0  9996,2 51742  53.2180 111.4632 0001758  45.7852 314.3284 15.08837535 36841,6917.888000000001,95.438,540.969,538.5369999999998,0.0
51742.0,STARLINK-3521,PAYLOAD,2022-10-20 12:29:20,15.08838816,0.000162,53.2179,108.489,40.5294,319.5819,-2.8933e-05,-7.48e-06,0.0,0 STARLINK-3521,1 51742U 22016AE  22293.52038119 -.00000748  00000-0 -28933-4 0  9997,2 51742  53.2179 108.4890 0001620  40.5294 319.5819 15.08838816 36947,6917.884,95.438,540.87,538.628,0.0
51742.0,STARLINK-3521,PAYLOAD,2022-10-20 18:50:53,15.08842833,0.0001805,53.2177,107.3004,36.8022,323.3094,1.1847e-05,-1e-06,0.0,0 STARLINK-3521,1 51742U 22016AE  22293.78533742 -.00000100  00000-0  11847-4 0  9994,2 51742  53.2177 107.3004 0001805  36.8022 323.3094 15.08842833 38115,6917.871999999999,95.437,540.985,538.488,0.0
51742.0,STARLINK-3521,PAYLOAD,2022-10-21 10:44:44,15.08833468,0.0001986999999999,53.2183,104.3281,51.1577,308.9593,6.479399999999999e-05,7.43e-06,0.0,0 STARLINK-3521,1 51742U 22016AE  22294.44773989  .00000743  00000-0  64794-4 0  9998,2 51742  53.2183 104.3281 0001987  51.1577 308.9593 15.08833468 37084,6917.9,95.438,541.14,538.391,0.0
51742.0,STARLINK-3521,PAYLOAD,2022-10-21 20:17:04,15.08827427,0.0001995,53.218,102.5432,48.7582,311.3582,1.6723e-06,-2.62e-06,0.0,0 STARLINK-3521,1 51742U 22016AE  22294.84518802 -.00000262  00000-0  16723-5 0  9990,2 51742  53.2180 102.5432 0001995  48.7582 311.3582 15.08827427 38272,6917.919,95.438,541.164,538.404,0.0
51742.0,STARLINK-3521,PAYLOAD,2022-10-22 10:35:32,15.08836727,0.0001994,53.2209,99.8695,55.9808,304.1373,-2.4506e-05,-6.78e-06,0.0,0 STARLINK-3521,1 51742U 22016AE  22295.44134441 -.00000678  00000-0 -24506-4 0  9999,2 51742  53.2209  99.8695 0001994  55.9808 304.1373 15.08836727 38364,6917.89,95.438,541.135,538.376,0.0
51742.0,STARLINK-3521,PAYLOAD,2022-10-22 20:07:50,15.08843484,0.000202,53.2187,98.0831,47.0245,313.0916,5.0047e-05,5.08e-06,0.0,0 STARLINK-3521,1 51742U 22016AE  22295.83877751  .00000508  00000-0  50047-4 0  9999,2 51742  53.2187  98.0831 0002020  47.0245 313.0916 15.08843484 38427,6917.87,95.437,541.132,538.337,0.0
